start=new Date('2022-07-06T00:00:00.000Z').valueOf();
sats=[{"SEMIMAJOR_AXIS":"6754.993","MEAN_MOTION_DOT":"-0.01045664","BSTAR":"-0.01224200000000","EPOCH":"2022-07-05T20:00:01.000224","FILE":"3508148","NORAD_CAT_ID":"52624","RA_OF_ASC_NODE":"182.3963","MEAN_ELEMENT_THEORY":"SGP4","CENTER_NAME":"EARTH","TLE_LINE2":"2 52624  53.2175 182.3963 0001091  83.4783 194.9376 15.63742934  8562","DECAY_DATE":null,"PERIOD":"92.087","INCLINATION":"53.2175","ELEMENT_SET_NO":"999","REV_AT_EPOCH":"856","TIME_SYSTEM":"UTC","TLE_LINE1":"1 52624U 22052AC  22186.83334491 -.01045664  00000-0 -12242-1 0  9994","GP_ID":"207454238","MEAN_MOTION":"15.63742934","MEAN_MOTION_DDOT":"0.0000000000000","CLASSIFICATION_TYPE":"U","ARG_OF_PERICENTER":"83.4783","REF_FRAME":"TEME","LAUNCH_DATE":"2022-05-14","SITE":"AFETR","APOAPSIS":"377.595","OBJECT_NAME":"STARLINK-4009","COUNTRY_CODE":"US","MEAN_ANOMALY":"194.9376","OBJECT_ID":"2022-052AC","ECCENTRICITY":"0.00010910","OBJECT_TYPE":"PAYLOAD","RCS_SIZE":"LARGE","PERIAPSIS":"376.122","EPHEMERIS_TYPE":"0"},{"TIME_SYSTEM":"UTC","TLE_LINE1":"1 52625U 22052AD  22186.83334491 -.01045718  00000-0 -12232-1 0  9994","GP_ID":"207454115","PERIOD":"92.085","DECAY_DATE":null,"TLE_LINE2":"2 52625  53.2175 182.4143 0001102  74.4820 207.2256 15.63764802  8562","REV_AT_EPOCH":"856","ELEMENT_SET_NO":"999","INCLINATION":"53.2175","NORAD_CAT_ID":"52625","FILE":"3508154","CENTER_NAME":"EARTH","RA_OF_ASC_NODE":"182.4143","MEAN_ELEMENT_THEORY":"SGP4","EPOCH":"2022-07-05T20:00:01.000224","BSTAR":"-0.01223200000000","MEAN_MOTION_DOT":"-0.01045718","SEMIMAJOR_AXIS":"6754.931","EPHEMERIS_TYPE":"0","PERIAPSIS":"376.051","ECCENTRICITY":"0.00011020","OBJECT_ID":"2022-052AD","MEAN_ANOMALY":"207.2256","RCS_SIZE":"LARGE","OBJECT_TYPE":"PAYLOAD","LAUNCH_DATE":"2022-05-14","COUNTRY_CODE":"US","OBJECT_NAME":"STARLINK-3988","APOAPSIS":"377.540","SITE":"AFETR","CLASSIFICATION_TYPE":"U","MEAN_MOTION_DDOT":"0.0000000000000","MEAN_MOTION":"15.63764802","ARG_OF_PERICENTER":"74.4820","REF_FRAME":"TEME"},{"ARG_OF_PERICENTER":"85.3116","REF_FRAME":"TEME","MEAN_MOTION":"15.63749824","CLASSIFICATION_TYPE":"U","MEAN_MOTION_DDOT":"0.0000000000000","APOAPSIS":"377.574","OBJECT_NAME":"STARLINK-3990","SITE":"AFETR","COUNTRY_CODE":"US","LAUNCH_DATE":"2022-05-14","OBJECT_TYPE":"PAYLOAD","RCS_SIZE":"LARGE","MEAN_ANOMALY":"193.8002","OBJECT_ID":"2022-052AE","ECCENTRICITY":"0.00010880","EPHEMERIS_TYPE":"0","PERIAPSIS":"376.104","SEMIMAJOR_AXIS":"6754.974","BSTAR":"-0.01223800000000","EPOCH":"2022-07-05T20:00:01.000224","MEAN_MOTION_DOT":"-0.01045614","RA_OF_ASC_NODE":"182.4011","MEAN_ELEMENT_THEORY":"SGP4","CENTER_NAME":"EARTH","FILE":"3508154","NORAD_CAT_ID":"52626","INCLINATION":"53.2175","REV_AT_EPOCH":"856","ELEMENT_SET_NO":"999","PERIOD":"92.086","DECAY_DATE":null,"TLE_LINE2":"2 52626  53.2175 182.4011 0001088  85.3116 193.8002 15.63749824  8565","GP_ID":"207454250","TLE_LINE1":"1 52626U 22052AE  22186.83334491 -.01045614  00000-0 -12238-1 0  9996","TIME_SYSTEM":"UTC"},{"EPOCH":"2022-07-05T14:00:01.000224","BSTAR":"-0.01201900000000","MEAN_MOTION_DOT":"-0.01051461","SEMIMAJOR_AXIS":"6753.220","MEAN_ELEMENT_THEORY":"SGP4","RA_OF_ASC_NODE":"183.6495","CENTER_NAME":"EARTH","NORAD_CAT_ID":"52627","FILE":"3508171","REV_AT_EPOCH":"130","ELEMENT_SET_NO":"999","INCLINATION":"53.2173","PERIOD":"92.050","TLE_LINE2":"2 52627  53.2173 183.6495 0001037  75.6531 239.6759 15.64358839  1306","DECAY_DATE":null,"GP_ID":"207479703","TIME_SYSTEM":"UTC","TLE_LINE1":"1 52627U 22052AF  22186.58334491 -.01051461  00000-0 -12019-1 0  9993","REF_FRAME":"TEME","ARG_OF_PERICENTER":"75.6531","CLASSIFICATION_TYPE":"U","MEAN_MOTION_DDOT":"0.0000000000000","MEAN_MOTION":"15.64358839","COUNTRY_CODE":"US","OBJECT_NAME":"STARLINK-3992","APOAPSIS":"375.786","SITE":"AFETR","LAUNCH_DATE":"2022-05-14","RCS_SIZE":"LARGE","OBJECT_TYPE":"PAYLOAD","ECCENTRICITY":"0.00010370","OBJECT_ID":"2022-052AF","MEAN_ANOMALY":"239.6759","EPHEMERIS_TYPE":"0","PERIAPSIS":"374.385"},{"OBJECT_TYPE":"PAYLOAD","RCS_SIZE":"LARGE","MEAN_ANOMALY":"142.0562","ECCENTRICITY":"0.00017530","OBJECT_ID":"2022-052AG","PERIAPSIS":"538.533","EPHEMERIS_TYPE":"0","ARG_OF_PERICENTER":"51.5623","REF_FRAME":"TEME","MEAN_MOTION":"15.08839831","MEAN_MOTION_DDOT":"0.0000000000000","CLASSIFICATION_TYPE":"U","SITE":"AFETR","OBJECT_NAME":"STARLINK-4001","APOAPSIS":"540.959","COUNTRY_CODE":"US","LAUNCH_DATE":"2022-05-14","INCLINATION":"53.2163","ELEMENT_SET_NO":"999","REV_AT_EPOCH":"130","TLE_LINE2":"2 52628  53.2163 193.5417 0001753  51.5623 142.0562 15.08839831  1303","DECAY_DATE":null,"PERIOD":"95.438","GP_ID":"207480146","TLE_LINE1":"1 52628U 22052AG  22186.58334491 -.00008692  00000-0 -52864-3 0  9995","TIME_SYSTEM":"UTC","SEMIMAJOR_AXIS":"6917.881","MEAN_MOTION_DOT":"-0.00008692","BSTAR":"-0.00052864000000","EPOCH":"2022-07-05T14:00:01.000224","CENTER_NAME":"EARTH","RA_OF_ASC_NODE":"193.5417","MEAN_ELEMENT_THEORY":"SGP4","FILE":"3508171","NORAD_CAT_ID":"52628"},{"GP_ID":"207479602","TLE_LINE1":"1 52629U 22052AH  22186.58334491 -.01051320  00000-0 -12014-1 0  9994","TIME_SYSTEM":"UTC","REV_AT_EPOCH":"130","ELEMENT_SET_NO":"999","INCLINATION":"53.2173","PERIOD":"92.050","TLE_LINE2":"2 52629  53.2173 183.6540 0001018  90.9004 225.1181 15.64365676  1309","DECAY_DATE":null,"MEAN_ELEMENT_THEORY":"SGP4","RA_OF_ASC_NODE":"183.6540","CENTER_NAME":"EARTH","NORAD_CAT_ID":"52629","FILE":"3508171","BSTAR":"-0.01201400000000","EPOCH":"2022-07-05T14:00:01.000224","MEAN_MOTION_DOT":"-0.01051320","SEMIMAJOR_AXIS":"6753.201","EPHEMERIS_TYPE":"0","PERIAPSIS":"374.378","RCS_SIZE":"LARGE","OBJECT_TYPE":"PAYLOAD","OBJECT_ID":"2022-052AH","ECCENTRICITY":"0.00010180","MEAN_ANOMALY":"225.1181","COUNTRY_CODE":"US","APOAPSIS":"375.753","OBJECT_NAME":"STARLINK-4022","SITE":"AFETR","LAUNCH_DATE":"2022-05-14","ARG_OF_PERICENTER":"90.9004","REF_FRAME":"TEME","CLASSIFICATION_TYPE":"U","MEAN_MOTION_DDOT":"0.0000000000000","MEAN_MOTION":"15.64365676"},{"GP_ID":"207480247","TIME_SYSTEM":"UTC","TLE_LINE1":"1 52630U 22052AJ  22186.58334491 -.01051573  00000-0 -12027-1 0  9990","INCLINATION":"53.2173","ELEMENT_SET_NO":"999","REV_AT_EPOCH":"130","DECAY_DATE":null,"TLE_LINE2":"2 52630  53.2173 183.6409 0001043  74.8026 239.1471 15.64345095  1308","PERIOD":"92.051","CENTER_NAME":"EARTH","RA_OF_ASC_NODE":"183.6409","MEAN_ELEMENT_THEORY":"SGP4","FILE":"3508171","NORAD_CAT_ID":"52630","SEMIMAJOR_AXIS":"6753.260","MEAN_MOTION_DOT":"-0.01051573","EPOCH":"2022-07-05T14:00:01.000224","BSTAR":"-0.01202700000000","PERIAPSIS":"374.421","EPHEMERIS_TYPE":"0","OBJECT_TYPE":"PAYLOAD","RCS_SIZE":"LARGE","MEAN_ANOMALY":"239.1471","ECCENTRICITY":"0.00010430","OBJECT_ID":"2022-052AJ","SITE":"AFETR","OBJECT_NAME":"STARLINK-3989","APOAPSIS":"375.829","COUNTRY_CODE":"US","LAUNCH_DATE":"2022-05-14","REF_FRAME":"TEME","ARG_OF_PERICENTER":"74.8026","MEAN_MOTION":"15.64345095","MEAN_MOTION_DDOT":"0.0000000000000","CLASSIFICATION_TYPE":"U"},{"FILE":"3508171","NORAD_CAT_ID":"52631","CENTER_NAME":"EARTH","RA_OF_ASC_NODE":"183.6570","MEAN_ELEMENT_THEORY":"SGP4","SEMIMAJOR_AXIS":"6753.162","MEAN_MOTION_DOT":"-0.01051203","BSTAR":"-0.01200600000000","EPOCH":"2022-07-05T14:00:01.000224","TLE_LINE1":"1 52631U 22052AK  22186.58334491 -.01051203  00000-0 -12006-1 0  9998","TIME_SYSTEM":"UTC","GP_ID":"207480051","DECAY_DATE":null,"TLE_LINE2":"2 52631  53.2174 183.6570 0001019  87.7887 229.6087 15.64379226  1300","PERIOD":"92.049","INCLINATION":"53.2174","ELEMENT_SET_NO":"999","REV_AT_EPOCH":"130","LAUNCH_DATE":"2022-05-14","SITE":"AFETR","OBJECT_NAME":"STARLINK-3794","APOAPSIS":"375.715","COUNTRY_CODE":"US","MEAN_MOTION":"15.64379226","MEAN_MOTION_DDOT":"0.0000000000000","CLASSIFICATION_TYPE":"U","ARG_OF_PERICENTER":"87.7887","REF_FRAME":"TEME","PERIAPSIS":"374.339","EPHEMERIS_TYPE":"0","MEAN_ANOMALY":"229.6087","ECCENTRICITY":"0.00010190","OBJECT_ID":"2022-052AK","OBJECT_TYPE":"PAYLOAD","RCS_SIZE":"LARGE"},{"TLE_LINE2":"2 52632  53.2173 183.6453 0001029  95.8428 218.7966 15.64351846  1305","DECAY_DATE":null,"PERIOD":"92.051","ELEMENT_SET_NO":"999","REV_AT_EPOCH":"130","INCLINATION":"53.2173","TLE_LINE1":"1 52632U 22052AL  22186.58334491 -.01051352  00000-0 -12021-1 0  9991","TIME_SYSTEM":"UTC","GP_ID":"207479799","MEAN_MOTION_DOT":"-0.01051352","BSTAR":"-0.01202100000000","EPOCH":"2022-07-05T14:00:01.000224","SEMIMAJOR_AXIS":"6753.240","NORAD_CAT_ID":"52632","FILE":"3508171","MEAN_ELEMENT_THEORY":"SGP4","RA_OF_ASC_NODE":"183.6453","CENTER_NAME":"EARTH","OBJECT_ID":"2022-052AL","ECCENTRICITY":"0.00010290","MEAN_ANOMALY":"218.7966","RCS_SIZE":"LARGE","OBJECT_TYPE":"PAYLOAD","PERIAPSIS":"374.411","EPHEMERIS_TYPE":"0","MEAN_MOTION_DDOT":"0.0000000000000","CLASSIFICATION_TYPE":"U","MEAN_MOTION":"15.64351846","ARG_OF_PERICENTER":"95.8428","REF_FRAME":"TEME","LAUNCH_DATE":"2022-05-14","COUNTRY_CODE":"US","SITE":"AFETR","OBJECT_NAME":"STARLINK-3995","APOAPSIS":"375.800"},{"MEAN_MOTION_DDOT":"0.0000000000000","CLASSIFICATION_TYPE":"U","MEAN_MOTION":"15.64400063","REF_FRAME":"TEME","ARG_OF_PERICENTER":"83.5176","LAUNCH_DATE":"2022-05-14","COUNTRY_CODE":"US","SITE":"AFETR","APOAPSIS":"375.649","OBJECT_NAME":"STARLINK-3994","ECCENTRICITY":"0.00010100","OBJECT_ID":"2022-052AM","MEAN_ANOMALY":"235.9474","RCS_SIZE":"LARGE","OBJECT_TYPE":"PAYLOAD","PERIAPSIS":"374.285","EPHEMERIS_TYPE":"0","MEAN_MOTION_DOT":"-0.01051357","BSTAR":"-0.01199800000000","EPOCH":"2022-07-05T14:00:01.000224","SEMIMAJOR_AXIS":"6753.102","NORAD_CAT_ID":"52633","FILE":"3508171","MEAN_ELEMENT_THEORY":"SGP4","RA_OF_ASC_NODE":"183.6704","CENTER_NAME":"EARTH","DECAY_DATE":null,"TLE_LINE2":"2 52633  53.2174 183.6704 0001010  83.5176 235.9474 15.64400063  1301","PERIOD":"92.048","ELEMENT_SET_NO":"999","REV_AT_EPOCH":"130","INCLINATION":"53.2174","TLE_LINE1":"1 52633U 22052AM  22186.58334491 -.01051357  00000-0 -11998-1 0  9999","TIME_SYSTEM":"UTC","GP_ID":"207479951"}];
